NORAD_CAT_ID,OBJECT_NAME,OBJECT_TYPE,EPOCH,MEAN_MOTION,ECCENTRICITY,INCLINATION,RA_OF_ASC_NODE,ARG_OF_PERICENTER,MEAN_ANOMALY,BSTAR,MEAN_MOTION_DOT,MEAN_MOTION_DDOT,TLE_LINE0,TLE_LINE1,TLE_LINE2,SEMIMAJOR_AXIS,PERIOD,APOGEE,PERIGEE,DECAYED
52682.0,STARLINK-4017,PAYLOAD,2022-07-29 22:00:00,15.15613581,0.0001647,53.2173,304.4042,40.1437,293.4606,-0.060603,-0.01078941,0.0,0 STARLINK-4017,1 52682U 22053AC  22210.91667824 -.01078941  00000-0 -60603-1 0  9993,2 52682  53.2173 304.4042 0001647  40.1437 293.4606 15.15613581 11659,6897.253000000002,95.011,520.254,517.982,0.0
52682.0,STARLINK-4017,PAYLOAD,2022-07-30 14:00:01,15.1409416,0.0002058,53.2174,301.3799,29.5457,341.6863,-0.063195,-0.01077666,0.0,0 STARLINK-4017,1 52682U 22053AC  22211.58334491 -.01077666  00000-0 -63195-1 0  9990,2 52682  53.2174 301.3799 0002058  29.5457 341.6863 15.14094160  1302,6901.8669999999975,95.106,525.1519999999998,522.312,0.0
52682.0,STARLINK-4017,PAYLOAD,2022-07-30 20:00:01,15.13525028,0.0001548,53.2172,300.2467,48.9034,245.4984,-0.064291,-0.01078673,0.0,0 STARLINK-4017,1 52682U 22053AC  22211.83334491 -.01078673  00000-0 -64291-1 0  9995,2 52682  53.2172 300.2467 0001548  48.9034 245.4984 15.13525028 11799,6903.597,95.142,526.531,524.393,0.0
52682.0,STARLINK-4017,PAYLOAD,2022-07-30 22:00:00,15.13334332,0.0001551999999999,53.2174,299.8688,44.495,344.1834,-0.064567,-0.01077575,0.0,0 STARLINK-4017,1 52682U 22053AC  22211.91667824 -.01077575  00000-0 -64567-1 0  9999,2 52682  53.2174 299.8688 0001552  44.4950 344.1834 15.13334332  1305,6904.177,95.154,527.114,524.97,0.0
52682.0,STARLINK-4017,PAYLOAD,2022-07-31 14:00:01,15.11815598,0.0001955,53.2174,296.855,34.8714,25.9584,-0.0673769999999999,-0.01077574,0.0,0 STARLINK-4017,1 52682U 22053AC  22212.58334491 -.01077574  00000-0 -67377-1 0  9995,2 52682  53.2174 296.8550 0001955  34.8714  25.9584 15.11815598  1300,6908.8,95.25,532.016,529.314,0.0
52682.0,STARLINK-4017,PAYLOAD,2022-07-31 20:00:01,15.1124628,0.0001569,53.2172,295.7257,43.8569,298.0894,-0.068511,-0.01078293,0.0,0 STARLINK-4017,1 52682U 22053AC  22212.83334491 -.01078293  00000-0 -68511-1 0  9993,2 52682  53.2172 295.7257 0001569  43.8569 298.0894 15.11246280 11943,6910.535,95.286,533.484,531.316,0.0
52682.0,STARLINK-4017,PAYLOAD,2022-07-31 22:00:00,15.11055026,0.0001683,53.2174,295.3492,42.8109,32.7275,-0.068721,-0.01076044,0.0,0 STARLINK-4017,1 52682U 22053AC  22212.91667824 -.01076044  00000-0 -68721-1 0  9996,2 52682  53.2174 295.3492 0001683  42.8109  32.7275 15.11055026  1309,6911.118,95.298,534.146,531.82,0.0
52682.0,STARLINK-4017,PAYLOAD,2022-08-01 14:00:01,15.09411066,0.0001909,53.2175,292.3473,33.5922,68.6396,-0.041926,-0.00636279,0.0,0 STARLINK-4017,1 52682U 22053AC  22213.58334491 -.00636279  00000-0 -41926-1 0  9990,2 52682  53.2175 292.3473 0001909  33.5922  68.6396 15.09411066  1306,6916.135,95.401,539.321,536.68,0.0
52682.0,STARLINK-4017,PAYLOAD,2022-08-01 22:00:00,15.08848778,0.0001788,53.2175,290.8482,39.3368,74.9205,-0.001323,-0.00021287,0.0,0 STARLINK-4017,1 52682U 22053AC  22213.91667824 -.00021287  00000-0 -13230-2 0  9991,2 52682  53.2175 290.8482 0001788  39.3368  74.9205 15.08848778 12115,6917.854,95.437,540.955,538.482,0.0
52682.0,STARLINK-4017,PAYLOAD,2022-08-02 14:00:01,15.08867337,0.0001938,53.2131,287.8645,38.8815,98.5194,-0.0021055999999999,-0.00033668,0.0,0 STARLINK-4017,1 52682U 22053AC  22214.58334491 -.00033668  00000-0 -21056-2 0  9997,2 52682  53.2131 287.8645 0001938  38.8815  98.5194 15.08867337  1302,6917.797,95.436,541.003,538.321,0.0
52682.0,STARLINK-4017,PAYLOAD,2022-08-03 04:00:00,15.08827423,0.0001673,53.2131,285.2435,42.3732,25.3441,0.0019624,0.00031071,0.0,0 STARLINK-4017,1 52682U 22053AC  22215.16667824  .00031071  00000-0  19624-2 0  9993,2 52682  53.2131 285.2435 0001673  42.3732  25.3441 15.08827423 12290,6917.919,95.438,540.941,538.626,0.0
52682.0,STARLINK-4017,PAYLOAD,2022-08-03 14:00:01,15.08823417,0.0001891,53.2131,283.3747,36.5079,135.7068,0.0019637,0.00031089,0.0,0 STARLINK-4017,1 52682U 22053AC  22215.58334491  .00031089  00000-0  19637-2 0  9993,2 52682  53.2131 283.3747 0001891  36.5079 135.7068 15.08823417  1306,6917.931,95.439,541.104,538.488,0.0
52682.0,STARLINK-4017,PAYLOAD,2022-08-03 20:00:01,15.08859993,0.0001805,53.2127,282.2513,37.5185,53.3842,-0.0020061,-0.00032091,0.0,0 STARLINK-4017,1 52682U 22053AC  22215.83334491 -.00032091  00000-0 -20061-2 0  9990,2 52682  53.2127 282.2513 0001805  37.5185  53.3842 15.08859993 12400,6917.819,95.436,540.933,538.436,0.0
52682.0,STARLINK-4017,PAYLOAD,2022-08-03 22:00:01,15.08849891,0.0001719,53.2129,281.8767,38.9034,144.9668,-0.00084997,-0.00013794,0.0,0 STARLINK-4017,1 52682U 22053AC  22215.91668981 -.00013794  00000-0 -84997-3 0  9991,2 52682  53.2129 281.8767 0001719  38.9034 144.9668 15.08849891  1306,6917.85,95.437,540.904,538.526,0.0
52682.0,STARLINK-4017,PAYLOAD,2022-08-04 14:00:01,15.08831158,0.0001911,53.2128,278.8851,37.5541,169.4675,0.0021135,0.00033501,0.0,0 STARLINK-4017,1 52682U 22053AC  22216.58334491  .00033501  00000-0  21135-2 0  9991,2 52682  53.2128 278.8851 0001911  37.5541 169.4675 15.08831158  1304,6917.906999999997,95.438,541.094,538.45,0.0
52682.0,STARLINK-4017,PAYLOAD,2022-08-04 22:00:00,15.08853578,0.0001771999999999,53.2125,277.3869,41.7866,176.8389,-0.0030587,-0.00048657,0.0,0 STARLINK-4017,1 52682U 22053AC  22216.91667824 -.00048657  00000-0 -30587-2 0  9998,2 52682  53.2125 277.3869 0001772  41.7866 176.8389 15.08853578  1300,6917.839,95.437,540.93,538.4780000000002,0.0
52682.0,STARLINK-4017,PAYLOAD,2022-08-05 12:00:00,15.08819599,0.0001986,53.2124,274.7695,42.2598,106.6439,0.00040718,6.195e-05,0.0,0 STARLINK-4017,1 52682U 22053AC  22217.50001157  .00006195  00000-0  40718-3 0  9992,2 52682  53.2124 274.7695 0001986  42.2598 106.6439 15.08819599 12654,6917.943,95.439,541.182,538.434,0.0
52682.0,STARLINK-4017,PAYLOAD,2022-08-05 14:00:01,15.08804816,0.0002011,53.2124,274.3955,40.8894,200.9752,0.0026334,0.00041832,0.0,0 STARLINK-4017,1 52682U 22053AC  22217.58335648  .00041832  00000-0  26334-2 0  9999,2 52682  53.2124 274.3955 0002011  40.8894 200.9752 15.08804816  1304,6917.988,95.44,541.244,538.462,0.0
52682.0,STARLINK-4017,PAYLOAD,2022-08-05 22:00:00,15.08825925,0.0001849,53.2123,272.8973,44.0016,209.3767,0.00011584,1.555e-05,0.0,0 STARLINK-4017,1 52682U 22053AC  22217.91667824  .00001555  00000-0  11584-3 0  9990,2 52682  53.2123 272.8973 0001849  44.0016 209.3767 15.08825925  1309,6917.9230000000025,95.438,541.068,538.509,0.0
52682.0,STARLINK-4017,PAYLOAD,2022-08-06 14:00:01,15.088124,0.0002063,53.2121,269.9061,41.2656,235.2875,0.0027994,0.00044513,0.0,0 STARLINK-4017,1 52682U 22053AC  22218.58334491  .00044513  00000-0  27994-2 0  9997,2 52682  53.2121 269.9061 0002063  41.2656 235.2875 15.08812400  1302,6917.965,95.439,541.257,538.403,0.0
52682.0,STARLINK-4017,PAYLOAD,2022-08-06 20:00:01,15.08850331,0.0001953,53.2121,268.7823,43.2296,152.0053,-0.0018465999999999,-0.00029566,0.0,0 STARLINK-4017,1 52682U 22053AC  22218.83334491 -.00029566  00000-0 -18466-2 0  9992,2 52682  53.2121 268.7823 0001953  43.2296 152.0053 15.08850331 12855,6917.849,95.437,541.065,538.363,0.0
52682.0,STARLINK-4017,PAYLOAD,2022-08-06 22:00:00,15.08829523,0.0001914,53.2122,268.4078,44.4196,243.721,0.00070123,0.00010887,0.0,0 STARLINK-4017,1 52682U 22053AC  22218.91667824  .00010887  00000-0  70123-3 0  9993,2 52682  53.2122 268.4078 0001914  44.4196 243.7210 15.08829523  1304,6917.9119999999975,95.438,541.102,538.453,0.0
52682.0,STARLINK-4017,PAYLOAD,2022-08-07 03:05:14,15.08841962,0.0001991,53.2132,267.4564,44.6109,315.5043,-2.075e-05,-6.18e-06,0.0,0 STARLINK-4017,1 52682U 22053AC  22219.12863901 -.00000618  00000-0 -20750-4 0  9996,2 52682  53.2132 267.4564 0001991  44.6109 315.5043 15.08841962 12894,6917.874,95.437,541.117,538.362,0.0
52682.0,STARLINK-4017,PAYLOAD,2022-08-07 14:00:01,15.08821978,0.0002145999999999,53.2121,265.4165,41.3743,269.9574,0.0028059,0.0004463,0.0,0 STARLINK-4017,1 52682U 22053AC  22219.58334491  .00044630  00000-0  28059-2 0  9991,2 52682  53.2121 265.4165 0002146  41.3743 269.9574 15.08821978  1308,6917.935,95.439,541.285,538.316,0.0
52682.0,STARLINK-4017,PAYLOAD,2022-08-07 22:00:00,15.08835935,0.0001998,53.2123,263.9182,44.948,277.9864,0.0014075,0.00022181,0.0,0 STARLINK-4017,1 52682U 22053AC  22219.91667824  .00022181  00000-0  14075-2 0  9997,2 52682  53.2123 263.9182 0001998  44.9480 277.9864 15.08835935  1302,6917.893,95.438,541.14,538.376,0.0
52682.0,STARLINK-4017,PAYLOAD,2022-08-08 04:00:00,15.08861385,0.0002025,53.2123,262.7959,47.7303,193.9005,0.00021685,3.167e-05,0.0,0 STARLINK-4017,1 52682U 22053AC  22220.16667824  .00003167  00000-0  21685-3 0  9995,2 52682  53.2123 262.7959 0002025  47.7303 193.9005 15.08861385 13055,6917.815,95.436,541.081,538.279,0.0
52682.0,STARLINK-4017,PAYLOAD,2022-08-08 14:00:01,15.08847572,0.0002182,53.2122,260.9269,40.2181,306.0091,0.00019468,2.812e-05,0.0,0 STARLINK-4017,1 52682U 22053AC  22220.58335648  .00002812  00000-0  19468-3 0  9999,2 52682  53.2122 260.9269 0002182  40.2181 306.0091 15.08847572  1303,6917.857,95.437,541.232,538.2130000000002,0.0
52682.0,STARLINK-4017,PAYLOAD,2022-08-08 22:00:00,15.08832846,0.0001966999999999,53.2124,259.4286,42.8374,314.9426,0.0014596,0.00023014,0.0,0 STARLINK-4017,1 52682U 22053AC  22220.91667824  .00023014  00000-0  14596-2 0  9993,2 52682  53.2124 259.4286 0001967  42.8374 314.9426 15.08832846  1307,6917.901999999999,95.438,541.128,538.4069999999998,0.0
52682.0,STARLINK-4017,PAYLOAD,2022-08-09 04:00:00,15.08862187,0.0001973,53.2125,258.3064,44.3003,232.1681,-0.0027846,-0.0004436,0.0,0 STARLINK-4017,1 52682U 22053AC  22221.16667824 -.00044360  00000-0 -27846-2 0  9992,2 52682  53.2125 258.3064 0001973  44.3003 232.1681 15.08862187 13200,6917.813,95.436,541.0419999999998,538.313,0.0
